[
    {
        "Altitude(m)": 604221.2282811144,
        "Argument of Periapsis(deg)": 0.0,
        "Eccentricity": 0.0,
        "Inclination(deg)": 60.0,
        "Latitude(deg)": 14.117382454878232,
        "Longitude(deg)": 113.33415648451947,
        "Mean Anomaly(deg)": 16.363600000000012,
        "RAAN(deg)": 205.0,
        "Satellite Name": "Test1 903",
        "Satellite Number": 903,
        "Semi-Major Axis(m)": 6980739.136638005,
        "Time(s)": 0
    },
    {
        "Altitude(m)": 604235.370012064,
        "Argument of Periapsis(deg)": 0.00010418945913296404,
        "Eccentricity": 0.0,
        "Inclination(deg)": 60.0,
        "Latitude(deg)": 14.651779155126732,
        "Longitude(deg)": 113.6226037125166,
        "Mean Anomaly(deg)": 16.983706145461838,
        "RAAN(deg)": 204.99957995086024,
        "Satellite Name": "Test1 903",
        "Satellite Number": 903,
        "Semi-Major Axis(m)": 6980739.136638005,
        "Time(s)": 10
    }
]